start=new Date('2022-03-22T00:00:00.000Z').valueOf();
sats=[{"ARG_OF_PERICENTER":"63.9961","CENTER_NAME":"EARTH","TLE_LINE1":"1 46701U 20073AH  22080.81058759 -.00001208  00000-0 -62196-4 0  9996","PERIAPSIS":"546.043","APOAPSIS":"548.338","RA_OF_ASC_NODE":"265.8919","MEAN_MOTION":"15.06407387","EPOCH":"2022-03-21T19:27:14.767776","SEMIMAJOR_AXIS":"6925.326","RCS_SIZE":"LARGE","COUNTRY_CODE":"US","INCLINATION":"53.0543","REF_FRAME":"TEME","MEAN_ELEMENT_THEORY":"SGP4","ELEMENT_SET_NO":"999","REV_AT_EPOCH":"7875","LAUNCH_DATE":"2020-10-18","OBJECT_ID":"2020-073AH","EPHEMERIS_TYPE":"0","SITE":"AFETR","GP_ID":"199348316","PERIOD":"95.592","MEAN_ANOMALY":"296.1198","MEAN_MOTION_DDOT":"0.0000000000000","FILE":"3368836","TLE_LINE2":"2 46701  53.0543 265.8919 0001657  63.9961 296.1198 15.06407387 78757","NORAD_CAT_ID":"46701","ECCENTRICITY":"0.00016570","MEAN_MOTION_DOT":"-0.00001208","TIME_SYSTEM":"UTC","CLASSIFICATION_TYPE":"U","DECAY_DATE":null,"BSTAR":"-0.00006219600000","OBJECT_TYPE":"PAYLOAD","OBJECT_NAME":"STARLINK-1801"},{"TLE_LINE1":"1 46702U 20073AJ  22080.88982977  .00002061  00000-0  15716-3 0  9993","PERIAPSIS":"546.060","APOAPSIS":"548.323","CENTER_NAME":"EARTH","ARG_OF_PERICENTER":"61.4275","MEAN_ELEMENT_THEORY":"SGP4","REF_FRAME":"TEME","ELEMENT_SET_NO":"999","REV_AT_EPOCH":"7904","INCLINATION":"53.0536","EPOCH":"2022-03-21T21:21:21.292128","SEMIMAJOR_AXIS":"6925.326","COUNTRY_CODE":"US","RCS_SIZE":"LARGE","MEAN_MOTION":"15.06407268","RA_OF_ASC_NODE":"245.5423","FILE":"3368836","GP_ID":"199347563","PERIOD":"95.592","MEAN_ANOMALY":"298.6878","MEAN_MOTION_DDOT":"0.0000000000000","LAUNCH_DATE":"2020-10-18","OBJECT_ID":"2020-073AJ","EPHEMERIS_TYPE":"0","SITE":"AFETR","OBJECT_NAME":"STARLINK-1802","CLASSIFICATION_TYPE":"U","DECAY_DATE":null,"BSTAR":"0.00015716000000","OBJECT_TYPE":"PAYLOAD","NORAD_CAT_ID":"46702","ECCENTRICITY":"0.00016340","MEAN_MOTION_DOT":"0.00002061","TIME_SYSTEM":"UTC","TLE_LINE2":"2 46702  53.0536 245.5423 0001634  61.4275 298.6878 15.06407268 79044"},{"PERIAPSIS":"546.102","APOAPSIS":"548.256","TLE_LINE1":"1 46703U 20073AK  22080.85482027 -.00000171  00000-0  74492-5 0  9991","ARG_OF_PERICENTER":"66.2845","CENTER_NAME":"EARTH","INCLINATION":"53.0540","REV_AT_EPOCH":"7875","ELEMENT_SET_NO":"999","MEAN_ELEMENT_THEORY":"SGP4","REF_FRAME":"TEME","MEAN_MOTION":"15.06411268","RA_OF_ASC_NODE":"265.6852","SEMIMAJOR_AXIS":"6925.314","COUNTRY_CODE":"US","RCS_SIZE":"LARGE","EPOCH":"2022-03-21T20:30:56.471328","FILE":"3368836","EPHEMERIS_TYPE":"0","SITE":"AFETR","OBJECT_ID":"2020-073AK","LAUNCH_DATE":"2020-10-18","MEAN_ANOMALY":"293.8307","MEAN_MOTION_DDOT":"0.0000000000000","GP_ID":"199347813","PERIOD":"95.591","DECAY_DATE":null,"BSTAR":"0.00000744920000","OBJECT_TYPE":"PAYLOAD","CLASSIFICATION_TYPE":"U","OBJECT_NAME":"STARLINK-1803","TLE_LINE2":"2 46703  53.0540 265.6852 0001555  66.2845 293.8307 15.06411268 78753","MEAN_MOTION_DOT":"-0.00000171","TIME_SYSTEM":"UTC","NORAD_CAT_ID":"46703","ECCENTRICITY":"0.00015550"},{"INCLINATION":"53.0536","MEAN_ELEMENT_THEORY":"SGP4","REF_FRAME":"TEME","ELEMENT_SET_NO":"999","REV_AT_EPOCH":"7902","RA_OF_ASC_NODE":"246.0842","MEAN_MOTION":"15.06401558","EPOCH":"2022-03-21T18:26:12.397920","RCS_SIZE":"LARGE","COUNTRY_CODE":"US","SEMIMAJOR_AXIS":"6925.344","TLE_LINE1":"1 46704U 20073AL  22080.76819905  .00000306  00000-0  39419-4 0  9999","APOAPSIS":"548.233","PERIAPSIS":"546.185","ARG_OF_PERICENTER":"71.0398","CENTER_NAME":"EARTH","CLASSIFICATION_TYPE":"U","OBJECT_TYPE":"PAYLOAD","BSTAR":"0.00003941900000","DECAY_DATE":null,"OBJECT_NAME":"STARLINK-1804","TLE_LINE2":"2 46704  53.0536 246.0842 0001479  71.0398 289.0751 15.06401558 79025","ECCENTRICITY":"0.00014790","NORAD_CAT_ID":"46704","TIME_SYSTEM":"UTC","MEAN_MOTION_DOT":"0.00000306","FILE":"3368836","OBJECT_ID":"2020-073AL","LAUNCH_DATE":"2020-10-18","SITE":"AFETR","EPHEMERIS_TYPE":"0","PERIOD":"95.592","GP_ID":"199348066","MEAN_MOTION_DDOT":"0.0000000000000","MEAN_ANOMALY":"289.0751"},{"MEAN_MOTION":"15.06407454","RA_OF_ASC_NODE":"280.7102","RCS_SIZE":"LARGE","COUNTRY_CODE":"US","SEMIMAJOR_AXIS":"6925.326","EPOCH":"2022-03-21T20:20:59.814528","INCLINATION":"53.0538","REV_AT_EPOCH":"7854","ELEMENT_SET_NO":"999","MEAN_ELEMENT_THEORY":"SGP4","REF_FRAME":"TEME","ARG_OF_PERICENTER":"69.1943","CENTER_NAME":"EARTH","APOAPSIS":"548.286","PERIAPSIS":"546.095","TLE_LINE1":"1 46705U 20073AM  22080.84791452 -.00000704  00000-0 -28347-4 0  9997","TLE_LINE2":"2 46705  53.0538 280.7102 0001582  69.1943 290.9215 15.06407454 78544","TIME_SYSTEM":"UTC","MEAN_MOTION_DOT":"-0.00000704","ECCENTRICITY":"0.00015820","NORAD_CAT_ID":"46705","OBJECT_TYPE":"PAYLOAD","DECAY_DATE":null,"BSTAR":"-0.00002834700000","CLASSIFICATION_TYPE":"U","OBJECT_NAME":"STARLINK-1805","SITE":"AFETR","EPHEMERIS_TYPE":"0","OBJECT_ID":"2020-073AM","LAUNCH_DATE":"2020-10-18","MEAN_MOTION_DDOT":"0.0000000000000","MEAN_ANOMALY":"290.9215","PERIOD":"95.592","GP_ID":"199348815","FILE":"3368836"},{"CLASSIFICATION_TYPE":"U","BSTAR":"0.00007028500000","DECAY_DATE":null,"OBJECT_TYPE":"PAYLOAD","OBJECT_NAME":"STARLINK-1807","TLE_LINE2":"2 46706  53.0560 265.5392 0001705  59.2883 300.8274 15.06404583 78762","NORAD_CAT_ID":"46706","ECCENTRICITY":"0.00017050","MEAN_MOTION_DOT":"0.00000766","TIME_SYSTEM":"UTC","FILE":"3368836","OBJECT_ID":"2020-073AN","LAUNCH_DATE":"2020-10-18","EPHEMERIS_TYPE":"0","SITE":"AFETR","GP_ID":"199347065","PERIOD":"95.592","MEAN_ANOMALY":"300.8274","MEAN_MOTION_DDOT":"0.0000000000000","INCLINATION":"53.0560","REF_FRAME":"TEME","MEAN_ELEMENT_THEORY":"SGP4","REV_AT_EPOCH":"7876","ELEMENT_SET_NO":"999","MEAN_MOTION":"15.06404583","RA_OF_ASC_NODE":"265.5392","EPOCH":"2022-03-21T21:18:42.521760","SEMIMAJOR_AXIS":"6925.335","RCS_SIZE":"LARGE","COUNTRY_CODE":"US","TLE_LINE1":"1 46706U 20073AN  22080.88799215  .00000766  00000-0  70285-4 0  9991","PERIAPSIS":"546.019","APOAPSIS":"548.380","ARG_OF_PERICENTER":"59.2883","CENTER_NAME":"EARTH"},{"TLE_LINE2":"2 46707  53.0537 246.1691 0001412  77.2340 282.8807 15.06403560 79022","ECCENTRICITY":"0.00014120","NORAD_CAT_ID":"46707","TIME_SYSTEM":"UTC","MEAN_MOTION_DOT":"0.00001518","CLASSIFICATION_TYPE":"U","OBJECT_TYPE":"PAYLOAD","BSTAR":"0.00012075000000","DECAY_DATE":null,"OBJECT_NAME":"STARLINK-1808","OBJECT_ID":"2020-073AP","LAUNCH_DATE":"2020-10-18","SITE":"AFETR","EPHEMERIS_TYPE":"0","PERIOD":"95.592","GP_ID":"199347315","MEAN_MOTION_DDOT":"0.0000000000000","MEAN_ANOMALY":"282.8807","FILE":"3368836","RA_OF_ASC_NODE":"246.1691","MEAN_MOTION":"15.06403560","EPOCH":"2022-03-21T17:54:21.128832","RCS_SIZE":"LARGE","COUNTRY_CODE":"US","SEMIMAJOR_AXIS":"6925.338","INCLINATION":"53.0537","REF_FRAME":"TEME","MEAN_ELEMENT_THEORY":"SGP4","REV_AT_EPOCH":"7902","ELEMENT_SET_NO":"999","ARG_OF_PERICENTER":"77.2340","CENTER_NAME":"EARTH","TLE_LINE1":"1 46707U 20073AP  22080.74607788  .00001518  00000-0  12075-3 0  9998","APOAPSIS":"548.181","PERIAPSIS":"546.225"},{"APOAPSIS":"359.512","PERIAPSIS":"356.203","TLE_LINE1":"1 46708U 20073AQ  22080.58024309  .00061672  00000-0  49638-3 0  9995","CENTER_NAME":"EARTH","ARG_OF_PERICENTER":"342.1718","ELEMENT_SET_NO":"999","REV_AT_EPOCH":"7986","REF_FRAME":"TEME","MEAN_ELEMENT_THEORY":"SGP4","INCLINATION":"53.0510","COUNTRY_CODE":"US","RCS_SIZE":"LARGE","SEMIMAJOR_AXIS":"6735.993","EPOCH":"2022-03-21T13:55:33.002976","RA_OF_ASC_NODE":"185.4532","MEAN_MOTION":"15.70364041","FILE":"3368836","MEAN_MOTION_DDOT":"0.0000000000000","MEAN_ANOMALY":"17.9212","PERIOD":"91.698","GP_ID":"199348565","SITE":"AFETR","EPHEMERIS_TYPE":"0","LAUNCH_DATE":"2020-10-18","OBJECT_ID":"2020-073AQ","OBJECT_NAME":"STARLINK-1809","OBJECT_TYPE":"PAYLOAD","DECAY_DATE":null,"BSTAR":"0.00049638000000","CLASSIFICATION_TYPE":"U","TIME_SYSTEM":"UTC","MEAN_MOTION_DOT":"0.00061672","ECCENTRICITY":"0.00024560","NORAD_CAT_ID":"46708","TLE_LINE2":"2 46708  53.0510 185.4532 0002456 342.1718  17.9212 15.70364041 79865"},{"CENTER_NAME":"EARTH","ARG_OF_PERICENTER":"67.1244","APOAPSIS":"548.359","PERIAPSIS":"546.047","TLE_LINE1":"1 46709U 20073AR  22080.87645367 -.00000838  00000-0 -37342-4 0  9990","COUNTRY_CODE":"US","RCS_SIZE":"LARGE","SEMIMAJOR_AXIS":"6925.338","EPOCH":"2022-03-21T21:02:05.597088","MEAN_MOTION":"15.06403555","RA_OF_ASC_NODE":"280.6008","REV_AT_EPOCH":"7854","ELEMENT_SET_NO":"999","MEAN_ELEMENT_THEORY":"SGP4","REF_FRAME":"TEME","INCLINATION":"53.0532","MEAN_MOTION_DDOT":"0.0000000000000","MEAN_ANOMALY":"292.9921","PERIOD":"95.592","GP_ID":"199348317","SITE":"AFETR","EPHEMERIS_TYPE":"0","OBJECT_ID":"2020-073AR","LAUNCH_DATE":"2020-10-18","FILE":"3368836","TIME_SYSTEM":"UTC","MEAN_MOTION_DOT":"-0.00000838","ECCENTRICITY":"0.00016690","NORAD_CAT_ID":"46709","TLE_LINE2":"2 46709  53.0532 280.6008 0001669  67.1244 292.9921 15.06403555 78548","OBJECT_NAME":"STARLINK-1810","OBJECT_TYPE":"PAYLOAD","DECAY_DATE":null,"BSTAR":"-0.00003734200000","CLASSIFICATION_TYPE":"U"},{"ARG_OF_PERICENTER":"66.1886","CENTER_NAME":"EARTH","TLE_LINE1":"1 46710U 20073AS  22080.84053642 -.00001046  00000-0 -51347-4 0  9991","PERIAPSIS":"546.158","APOAPSIS":"548.258","MEAN_MOTION":"15.06401696","RA_OF_ASC_NODE":"280.7502","EPOCH":"2022-03-21T20:10:22.346688","SEMIMAJOR_AXIS":"6925.343","RCS_SIZE":"LARGE","COUNTRY_CODE":"US","INCLINATION":"53.0524","REF_FRAME":"TEME","MEAN_ELEMENT_THEORY":"SGP4","ELEMENT_SET_NO":"999","REV_AT_EPOCH":"7854","LAUNCH_DATE":"2020-10-18","OBJECT_ID":"2020-073AS","EPHEMERIS_TYPE":"0","SITE":"AFETR","GP_ID":"199347564","PERIOD":"95.592","MEAN_ANOMALY":"293.9262","MEAN_MOTION_DDOT":"0.0000000000000","FILE":"3368836","TLE_LINE2":"2 46710  53.0524 280.7502 0001516  66.1886 293.9262 15.06401696 78546","NORAD_CAT_ID":"46710","ECCENTRICITY":"0.00015160","MEAN_MOTION_DOT":"-0.00001046","TIME_SYSTEM":"UTC","CLASSIFICATION_TYPE":"U","DECAY_DATE":null,"BSTAR":"-0.00005134700000","OBJECT_TYPE":"PAYLOAD","OBJECT_NAME":"STARLINK-1811"}];
